[{"OBJECT_NAME":"FORMOSAT 7-3","OBJECT_ID":"2019-036E","EPOCH":"2026-03-09T19:49:52.754592","MEAN_MOTION":15.08933962,"ECCENTRICITY":0.00010606,"INCLINATION":23.9981,"RA_OF_ASC_NODE":141.9797,"ARG_OF_PERICENTER":150.4425,"MEAN_ANOMALY":209.6139,"EPHEMERIS_TYPE":0,"CLASSIFICATION_TYPE":"U","NORAD_CAT_ID":44343,"ELEMENT_SET_NO":999,"REV_AT_EPOCH":36821,"BSTAR":0.00037650049,"MEAN_MOTION_DOT":6.445e-5,"MEAN_MOTION_DDOT":0},{"OBJECT_NAME":"STARLINK-3714","OBJECT_ID":"2022-029G","EPOCH":"2026-03-09T11:28:41.153376","MEAN_MOTION":15.08824496,"ECCENTRICITY":0.00013732,"INCLINATION":53.2183,"RA_OF_ASC_NODE":90.0768,"ARG_OF_PERICENTER":64.3264,"MEAN_ANOMALY":295.787,"EPHEMERIS_TYPE":0,"CLASSIFICATION_TYPE":"U","NORAD_CAT_ID":52094,"ELEMENT_SET_NO":999,"REV_AT_EPOCH":22062,"BSTAR":2.6381353e-5,"MEAN_MOTION_DOT":1.32e-6,"MEAN_MOTION_DDOT":0}]
